CCSDS_OMM_VERS = 2.0
CREATION_DATE  = 
ORIGINATOR     = 

OBJECT_NAME    = H-2A R/B
OBJECT_ID      = 2006-002B
CENTER_NAME    = EARTH
REF_FRAME      = TEME
TIME_SYSTEM    = UTC
MEAN_ELEMENT_THEORY = SGP/SGP4

EPOCH          = 2026-03-18T15:34:05.405952
MEAN_MOTION    = 15.16612443
ECCENTRICITY   = .0052085
INCLINATION    = 98.2422
RA_OF_ASC_NODE = 225.4450
ARG_OF_PERICENTER = 210.2238
MEAN_ANOMALY   = 149.5986

EPHEMERIS_TYPE = 0
CLASSIFICATION_TYPE = U
NORAD_CAT_ID   = 28932
ELEMENT_SET_NO = 999
REV_AT_EPOCH   = 9579
BSTAR          = .40502E-3
MEAN_MOTION_DOT = .8115E-4
MEAN_MOTION_DDOT = 0

CCSDS_OMM_VERS = 2.0
CREATION_DATE  = 
ORIGINATOR     = 

OBJECT_NAME    = RESURS-DK 1
OBJECT_ID      = 2006-021A
CENTER_NAME    = EARTH
REF_FRAME      = TEME
TIME_SYSTEM    = UTC
MEAN_ELEMENT_THEORY = SGP/SGP4

EPOCH          = 2026-03-18T19:01:21.367488
MEAN_MOTION    = 15.12808632
ECCENTRICITY   = .0000953
INCLINATION    = 69.9333
RA_OF_ASC_NODE = 213.4744
ARG_OF_PERICENTER = 140.3222
MEAN_ANOMALY   = 219.8014

EPHEMERIS_TYPE = 0
CLASSIFICATION_TYPE = U
NORAD_CAT_ID   = 29228
ELEMENT_SET_NO = 999
REV_AT_EPOCH   = 8890
BSTAR          = .16502E-3
MEAN_MOTION_DOT = .2798E-4
MEAN_MOTION_DDOT = 0

CCSDS_OMM_VERS = 2.0
CREATION_DATE  = 
ORIGINATOR     = 

OBJECT_NAME    = CZ-4B R/B
OBJECT_ID      = 2006-046C
CENTER_NAME    = EARTH
REF_FRAME      = TEME
TIME_SYSTEM    = UTC
MEAN_ELEMENT_THEORY = SGP/SGP4

EPOCH          = 2026-03-18T20:15:31.174848
MEAN_MOTION    = 15.16994799
ECCENTRICITY   = .0031922
INCLINATION    = 97.5573
RA_OF_ASC_NODE = 122.7281
ARG_OF_PERICENTER = 234.0273
MEAN_ANOMALY   = 125.7999

EPHEMERIS_TYPE = 0
CLASSIFICATION_TYPE = U
NORAD_CAT_ID   = 29507
ELEMENT_SET_NO = 999
REV_AT_EPOCH   = 6143
BSTAR          = .17917E-3
MEAN_MOTION_DOT = .3514E-4
MEAN_MOTION_DDOT = 0

CCSDS_OMM_VERS = 2.0
CREATION_DATE  = 
ORIGINATOR     = 

OBJECT_NAME    = CZ-2C R/B
OBJECT_ID      = 2007-010B
CENTER_NAME    = EARTH
REF_FRAME      = TEME
TIME_SYSTEM    = UTC
MEAN_ELEMENT_THEORY = SGP/SGP4

EPOCH          = 2026-03-18T21:13:33.841344
MEAN_MOTION    = 14.20249479
ECCENTRICITY   = .0057836
INCLINATION    = 98.3987
RA_OF_ASC_NODE = 190.7027
ARG_OF_PERICENTER = 267.3507
MEAN_ANOMALY   = 92.1049

EPHEMERIS_TYPE = 0
CLASSIFICATION_TYPE = U
NORAD_CAT_ID   = 31114
ELEMENT_SET_NO = 999
REV_AT_EPOCH   = 98102
BSTAR          = .68337E-4
MEAN_MOTION_DOT = .107E-5
MEAN_MOTION_DDOT = 0

CCSDS_OMM_VERS = 2.0
CREATION_DATE  = 
ORIGINATOR     = 

OBJECT_NAME    = COSMO-SKYMED 1
OBJECT_ID      = 2007-023A
CENTER_NAME    = EARTH
REF_FRAME      = TEME
TIME_SYSTEM    = UTC
MEAN_ELEMENT_THEORY = SGP/SGP4

EPOCH          = 2026-03-18T19:47:05.430624
MEAN_MOTION    = 14.96610337
ECCENTRICITY   = .000151
INCLINATION    = 97.8881
RA_OF_ASC_NODE = 268.9308
ARG_OF_PERICENTER = 88.5563
MEAN_ANOMALY   = 271.5830

EPHEMERIS_TYPE = 0
CLASSIFICATION_TYPE = U
NORAD_CAT_ID   = 31598
ELEMENT_SET_NO = 999
REV_AT_EPOCH   = 1627
BSTAR          = .26393E-3
MEAN_MOTION_DOT = .2947E-4
MEAN_MOTION_DDOT = 0

CCSDS_OMM_VERS = 2.0
CREATION_DATE  = 
ORIGINATOR     = 

OBJECT_NAME    = COSMOS 2428
OBJECT_ID      = 2007-029A
CENTER_NAME    = EARTH
REF_FRAME      = TEME
TIME_SYSTEM    = UTC
MEAN_ELEMENT_THEORY = SGP/SGP4

EPOCH          = 2026-03-18T17:42:49.385376
MEAN_MOTION    = 14.12947395
ECCENTRICITY   = .0009467
INCLINATION    = 70.9440
RA_OF_ASC_NODE = 184.3524
ARG_OF_PERICENTER = 267.8609
MEAN_ANOMALY   = 92.1428

EPHEMERIS_TYPE = 0
CLASSIFICATION_TYPE = U
NORAD_CAT_ID   = 31792
ELEMENT_SET_NO = 999
REV_AT_EPOCH   = 96537
BSTAR          = .14485E-4
MEAN_MOTION_DOT = -.21E-6
MEAN_MOTION_DDOT = 0

CCSDS_OMM_VERS = 2.0
CREATION_DATE  = 
ORIGINATOR     = 

OBJECT_NAME    = SL-16 R/B
OBJECT_ID      = 2007-029B
CENTER_NAME    = EARTH
REF_FRAME      = TEME
TIME_SYSTEM    = UTC
MEAN_ELEMENT_THEORY = SGP/SGP4

EPOCH          = 2026-03-18T16:56:18.068352
MEAN_MOTION    = 14.14838206
ECCENTRICITY   = .0002312
INCLINATION    = 70.9756
RA_OF_ASC_NODE = 153.4336
ARG_OF_PERICENTER = 276.4825
MEAN_ANOMALY   = 255.1275

EPHEMERIS_TYPE = 0
CLASSIFICATION_TYPE = U
NORAD_CAT_ID   = 31793
ELEMENT_SET_NO = 999
REV_AT_EPOCH   = 96664
BSTAR          = .20844E-3
MEAN_MOTION_DOT = .355E-5
MEAN_MOTION_DDOT = 0

CCSDS_OMM_VERS = 2.0
CREATION_DATE  = 
ORIGINATOR     = 

OBJECT_NAME    = KORONAS-FOTON
OBJECT_ID      = 2009-003A
CENTER_NAME    = EARTH
REF_FRAME      = TEME
TIME_SYSTEM    = UTC
MEAN_ELEMENT_THEORY = SGP/SGP4

EPOCH          = 2026-03-18T18:37:33.000960
MEAN_MOTION    = 15.43538013
ECCENTRICITY   = .0011769
INCLINATION    = 82.4270
RA_OF_ASC_NODE = 266.4287
ARG_OF_PERICENTER = 119.9731
MEAN_ANOMALY   = 240.2686

EPHEMERIS_TYPE = 0
CLASSIFICATION_TYPE = U
NORAD_CAT_ID   = 33504
ELEMENT_SET_NO = 999
REV_AT_EPOCH   = 94714
BSTAR          = .24755E-3
MEAN_MOTION_DOT = .11173E-3
MEAN_MOTION_DDOT = 0

CCSDS_OMM_VERS = 2.0
CREATION_DATE  = 
ORIGINATOR     = 

OBJECT_NAME    = CZ-2C R/B
OBJECT_ID      = 2011-030B
CENTER_NAME    = EARTH
REF_FRAME      = TEME
TIME_SYSTEM    = UTC
MEAN_ELEMENT_THEORY = SGP/SGP4

EPOCH          = 2026-03-18T20:38:19.973760
MEAN_MOTION    = 14.81256020
ECCENTRICITY   = .0051655
INCLINATION    = 97.8561
RA_OF_ASC_NODE = 34.9405
ARG_OF_PERICENTER = 321.9615
MEAN_ANOMALY   = 63.9088

EPHEMERIS_TYPE = 0
CLASSIFICATION_TYPE = U
NORAD_CAT_ID   = 37731
ELEMENT_SET_NO = 999
REV_AT_EPOCH   = 79145
BSTAR          = .18458E-3
MEAN_MOTION_DOT = .1416E-4
MEAN_MOTION_DDOT = 0

CCSDS_OMM_VERS = 2.0
CREATION_DATE  = 
ORIGINATOR     = 

OBJECT_NAME    = H-2A R/B
OBJECT_ID      = 2012-025E
CENTER_NAME    = EARTH
REF_FRAME      = TEME
TIME_SYSTEM    = UTC
MEAN_ELEMENT_THEORY = SGP/SGP4

EPOCH          = 2026-03-18T21:31:20.061408
MEAN_MOTION    = 14.95231468
ECCENTRICITY   = .0043185
INCLINATION    = 98.4742
RA_OF_ASC_NODE = 45.6810
ARG_OF_PERICENTER = 283.1732
MEAN_ANOMALY   = 76.4670

EPHEMERIS_TYPE = 0
CLASSIFICATION_TYPE = U
NORAD_CAT_ID   = 38341
ELEMENT_SET_NO = 999
REV_AT_EPOCH   = 74959
BSTAR          = .23686E-3
MEAN_MOTION_DOT = .2583E-4
MEAN_MOTION_DDOT = 0

CCSDS_OMM_VERS = 2.0
CREATION_DATE  = 
ORIGINATOR     = 

OBJECT_NAME    = SHIJIAN-16 (SJ-16)
OBJECT_ID      = 2013-057A
CENTER_NAME    = EARTH
REF_FRAME      = TEME
TIME_SYSTEM    = UTC
MEAN_ELEMENT_THEORY = SGP/SGP4

EPOCH          = 2026-03-18T21:07:35.211360
MEAN_MOTION    = 14.92386198
ECCENTRICITY   = .00153
INCLINATION    = 74.9741
RA_OF_ASC_NODE = 167.6911
ARG_OF_PERICENTER = 89.0146
MEAN_ANOMALY   = 271.2795

EPHEMERIS_TYPE = 0
CLASSIFICATION_TYPE = U
NORAD_CAT_ID   = 39358
ELEMENT_SET_NO = 999
REV_AT_EPOCH   = 67287
BSTAR          = .16035E-3
MEAN_MOTION_DOT = .1616E-4
MEAN_MOTION_DDOT = 0

CCSDS_OMM_VERS = 2.0
CREATION_DATE  = 
ORIGINATOR     = 

OBJECT_NAME    = SL-4 R/B
OBJECT_ID      = 2014-021B
CENTER_NAME    = EARTH
REF_FRAME      = TEME
TIME_SYSTEM    = UTC
MEAN_ELEMENT_THEORY = SGP/SGP4

EPOCH          = 2026-03-17T20:58:21.112608
MEAN_MOTION    = 15.39450841
ECCENTRICITY   = .0096816
INCLINATION    = 51.6063
RA_OF_ASC_NODE = 297.3446
ARG_OF_PERICENTER = 132.8242
MEAN_ANOMALY   = 228.0930

EPHEMERIS_TYPE = 0
CLASSIFICATION_TYPE = U
NORAD_CAT_ID   = 39679
ELEMENT_SET_NO = 999
REV_AT_EPOCH   = 65753
BSTAR          = .27196092E-3
MEAN_MOTION_DOT = .1232E-3
MEAN_MOTION_DDOT = 0

